SL-3 R/B                
1 13403U 82079B   26015.62979396  .00002877  00000+0  11658-3 0  9999
2 13403  81.1459 255.7019 0025288 348.4884  11.5767 15.24034194369619
SL-14 R/B               
1 13553U 82092B   26015.53708505  .00000374  00000+0  39201-4 0  9997
2 13553  82.5672 191.1016 0021727 115.8145 302.0319 14.86594203321031
SL-3 R/B                
1 13819U 83010B   26015.60203669  .00007958  00000+0  17032-3 0  9994
2 13819  81.1034  67.2524 0016336 228.3148 131.6699 15.44483556349741
SL-3 R/B                
1 14208U 83075B   26015.58657387  .00006777  00000+0  18826-3 0  9995
2 14208  97.6112  18.2282 0024251  62.1432 298.2264 15.36932098321991
COSMOS 1536             
1 14699U 84013A   26015.38545589  .00003824  00000+0  16071-3 0  9990
2 14699  82.5459 160.7859 0015664 108.9707 251.3229 15.23009710264503
SL-14 R/B               
1 14820U 84027B   26015.22617783  .00000321  00000+0  33876-4 0  9992
2 14820  82.5432 295.1568 0018754 146.2428 213.9987 14.85915070239697
SL-8 R/B                
1 15483U 85006B   26015.43943277  .00000213  00000+0  79477-4 0  9996
2 15483  74.0465 359.1280 0019778 285.7678 189.2008 14.37746153146372
SL-12 R/B(2)            
1 15772U 85042D   26015.58216640 -.00000005  00000+0  19050-4 0  9991
2 15772  71.1064 199.9246 0036377 211.3887 206.3832 14.21962376106843
SL-14 R/B               
1 15945U 85069B   26015.63111575  .00000298  00000+0  30968-4 0  9993
2 15945  82.5255  74.8393 0019061  13.0093 347.1611 14.86365121164955
SL-16 R/B               
1 16182U 85097B   26015.66833777 -.00000120  00000+0 -36188-4 0  9992
2 16182  71.0018 252.1759 0008704 322.5341  70.4009 14.16592277 79726
SL-14 R/B               
1 16496U 86006B   26015.35261675  .00000493  00000+0  49415-4 0  9997
2 16496  82.5288 309.9274 0078287  89.4773 271.5413 14.86721736141289
COSMOS 1743             
1 16719U 86034A   26015.54102933  .00023652  00000+0  35895-3 0  9996
2 16719  82.5358 129.4255 0005373 126.8037 233.3711 15.54436019171984
