CCSDS_OMM_VERS = 2.0
CREATION_DATE  = 
ORIGINATOR     = 

OBJECT_NAME    = SL-3 R/B
OBJECT_ID      = 1982-079B
CENTER_NAME    = EARTH
REF_FRAME      = TEME
TIME_SYSTEM    = UTC
MEAN_ELEMENT_THEORY = SGP/SGP4

EPOCH          = 2026-01-15T15:06:54.198144
MEAN_MOTION    = 15.24034194
ECCENTRICITY   = .00252889
INCLINATION    = 81.1459
RA_OF_ASC_NODE = 255.7019
ARG_OF_PERICENTER = 348.4884
MEAN_ANOMALY   = 11.5767

EPHEMERIS_TYPE = 0
CLASSIFICATION_TYPE = U
NORAD_CAT_ID   = 13403
ELEMENT_SET_NO = 999
REV_AT_EPOCH   = 36961
BSTAR          = .11657858E-3
MEAN_MOTION_DOT = .2877E-4
MEAN_MOTION_DDOT = 0

CCSDS_OMM_VERS = 2.0
CREATION_DATE  = 
ORIGINATOR     = 

OBJECT_NAME    = SL-14 R/B
OBJECT_ID      = 1982-092B
CENTER_NAME    = EARTH
REF_FRAME      = TEME
TIME_SYSTEM    = UTC
MEAN_ELEMENT_THEORY = SGP/SGP4

EPOCH          = 2026-01-15T12:53:24.148320
MEAN_MOTION    = 14.86594203
ECCENTRICITY   = .00217271
INCLINATION    = 82.5672
RA_OF_ASC_NODE = 191.1016
ARG_OF_PERICENTER = 115.8145
MEAN_ANOMALY   = 302.0319

EPHEMERIS_TYPE = 0
CLASSIFICATION_TYPE = U
NORAD_CAT_ID   = 13553
ELEMENT_SET_NO = 999
REV_AT_EPOCH   = 32103
BSTAR          = .3920075E-4
MEAN_MOTION_DOT = .374E-5
MEAN_MOTION_DDOT = 0

CCSDS_OMM_VERS = 2.0
CREATION_DATE  = 
ORIGINATOR     = 

OBJECT_NAME    = SL-3 R/B
OBJECT_ID      = 1983-010B
CENTER_NAME    = EARTH
REF_FRAME      = TEME
TIME_SYSTEM    = UTC
MEAN_ELEMENT_THEORY = SGP/SGP4

EPOCH          = 2026-01-15T14:26:55.970016
MEAN_MOTION    = 15.44483556
ECCENTRICITY   = .00163368
INCLINATION    = 81.1034
RA_OF_ASC_NODE = 67.2524
ARG_OF_PERICENTER = 228.3148
MEAN_ANOMALY   = 131.6699

EPHEMERIS_TYPE = 0
CLASSIFICATION_TYPE = U
NORAD_CAT_ID   = 13819
ELEMENT_SET_NO = 999
REV_AT_EPOCH   = 34974
BSTAR          = .17031732E-3
MEAN_MOTION_DOT = .7958E-4
MEAN_MOTION_DDOT = 0

CCSDS_OMM_VERS = 2.0
CREATION_DATE  = 
ORIGINATOR     = 

OBJECT_NAME    = SL-3 R/B
OBJECT_ID      = 1983-075B
CENTER_NAME    = EARTH
REF_FRAME      = TEME
TIME_SYSTEM    = UTC
MEAN_ELEMENT_THEORY = SGP/SGP4

EPOCH          = 2026-01-15T14:04:39.982368
MEAN_MOTION    = 15.36932098
ECCENTRICITY   = .00242512
INCLINATION    = 97.6112
RA_OF_ASC_NODE = 18.2282
ARG_OF_PERICENTER = 62.1432
MEAN_ANOMALY   = 298.2264

EPHEMERIS_TYPE = 0
CLASSIFICATION_TYPE = U
NORAD_CAT_ID   = 14208
ELEMENT_SET_NO = 999
REV_AT_EPOCH   = 32199
BSTAR          = .18826166E-3
MEAN_MOTION_DOT = .6777E-4
MEAN_MOTION_DDOT = 0

CCSDS_OMM_VERS = 2.0
CREATION_DATE  = 
ORIGINATOR     = 

OBJECT_NAME    = COSMOS 1536
OBJECT_ID      = 1984-013A
CENTER_NAME    = EARTH
REF_FRAME      = TEME
TIME_SYSTEM    = UTC
MEAN_ELEMENT_THEORY = SGP/SGP4

EPOCH          = 2026-01-15T09:15:03.388896
MEAN_MOTION    = 15.23009710
ECCENTRICITY   = .00156644
INCLINATION    = 82.5459
RA_OF_ASC_NODE = 160.7859
ARG_OF_PERICENTER = 108.9707
MEAN_ANOMALY   = 251.3229

EPHEMERIS_TYPE = 0
CLASSIFICATION_TYPE = U
NORAD_CAT_ID   = 14699
ELEMENT_SET_NO = 999
REV_AT_EPOCH   = 26450
BSTAR          = .16071357E-3
MEAN_MOTION_DOT = .3824E-4
MEAN_MOTION_DDOT = 0

CCSDS_OMM_VERS = 2.0
CREATION_DATE  = 
ORIGINATOR     = 

OBJECT_NAME    = SL-14 R/B
OBJECT_ID      = 1984-027B
CENTER_NAME    = EARTH
REF_FRAME      = TEME
TIME_SYSTEM    = UTC
MEAN_ELEMENT_THEORY = SGP/SGP4

EPOCH          = 2026-01-15T05:25:41.764512
MEAN_MOTION    = 14.85915070
ECCENTRICITY   = .00187543
INCLINATION    = 82.5432
RA_OF_ASC_NODE = 295.1568
ARG_OF_PERICENTER = 146.2428
MEAN_ANOMALY   = 213.9987

EPHEMERIS_TYPE = 0
CLASSIFICATION_TYPE = U
NORAD_CAT_ID   = 14820
ELEMENT_SET_NO = 999
REV_AT_EPOCH   = 23969
BSTAR          = .33875578E-4
MEAN_MOTION_DOT = .321E-5
MEAN_MOTION_DDOT = 0

CCSDS_OMM_VERS = 2.0
CREATION_DATE  = 
ORIGINATOR     = 

OBJECT_NAME    = SL-8 R/B
OBJECT_ID      = 1985-006B
CENTER_NAME    = EARTH
REF_FRAME      = TEME
TIME_SYSTEM    = UTC
MEAN_ELEMENT_THEORY = SGP/SGP4

EPOCH          = 2026-01-15T10:32:46.991328
MEAN_MOTION    = 14.37746153
ECCENTRICITY   = .00197785
INCLINATION    = 74.0465
RA_OF_ASC_NODE = 359.1280
ARG_OF_PERICENTER = 285.7678
MEAN_ANOMALY   = 189.2008

EPHEMERIS_TYPE = 0
CLASSIFICATION_TYPE = U
NORAD_CAT_ID   = 15483
ELEMENT_SET_NO = 999
REV_AT_EPOCH   = 14637
BSTAR          = .79477048E-4
MEAN_MOTION_DOT = .213E-5
MEAN_MOTION_DDOT = 0

CCSDS_OMM_VERS = 2.0
CREATION_DATE  = 
ORIGINATOR     = 

OBJECT_NAME    = SL-12 R/B(2)
OBJECT_ID      = 1985-042D
CENTER_NAME    = EARTH
REF_FRAME      = TEME
TIME_SYSTEM    = UTC
MEAN_ELEMENT_THEORY = SGP/SGP4

EPOCH          = 2026-01-15T13:58:19.176960
MEAN_MOTION    = 14.21962376
ECCENTRICITY   = .00363775
INCLINATION    = 71.1064
RA_OF_ASC_NODE = 199.9246
ARG_OF_PERICENTER = 211.3887
MEAN_ANOMALY   = 206.3832

EPHEMERIS_TYPE = 0
CLASSIFICATION_TYPE = U
NORAD_CAT_ID   = 15772
ELEMENT_SET_NO = 999
REV_AT_EPOCH   = 10684
BSTAR          = .19050353E-4
MEAN_MOTION_DOT = -.5E-7
MEAN_MOTION_DDOT = 0

CCSDS_OMM_VERS = 2.0
CREATION_DATE  = 
ORIGINATOR     = 

OBJECT_NAME    = SL-14 R/B
OBJECT_ID      = 1985-069B
CENTER_NAME    = EARTH
REF_FRAME      = TEME
TIME_SYSTEM    = UTC
MEAN_ELEMENT_THEORY = SGP/SGP4

EPOCH          = 2026-01-15T15:08:48.400800
MEAN_MOTION    = 14.86365121
ECCENTRICITY   = .00190615
INCLINATION    = 82.5255
RA_OF_ASC_NODE = 74.8393
ARG_OF_PERICENTER = 13.0093
MEAN_ANOMALY   = 347.1611

EPHEMERIS_TYPE = 0
CLASSIFICATION_TYPE = U
NORAD_CAT_ID   = 15945
ELEMENT_SET_NO = 999
REV_AT_EPOCH   = 16495
BSTAR          = .30967872E-4
MEAN_MOTION_DOT = .298E-5
MEAN_MOTION_DDOT = 0

CCSDS_OMM_VERS = 2.0
CREATION_DATE  = 
ORIGINATOR     = 

OBJECT_NAME    = SL-16 R/B
OBJECT_ID      = 1985-097B
CENTER_NAME    = EARTH
REF_FRAME      = TEME
TIME_SYSTEM    = UTC
MEAN_ELEMENT_THEORY = SGP/SGP4

EPOCH          = 2026-01-15T16:02:24.383328
MEAN_MOTION    = 14.16592277
ECCENTRICITY   = .00087047
INCLINATION    = 71.0018
RA_OF_ASC_NODE = 252.1759
ARG_OF_PERICENTER = 322.5341
MEAN_ANOMALY   = 70.4009

EPHEMERIS_TYPE = 0
CLASSIFICATION_TYPE = U
NORAD_CAT_ID   = 16182
ELEMENT_SET_NO = 999
REV_AT_EPOCH   = 7972
BSTAR          = -.36188454E-4
MEAN_MOTION_DOT = -.12E-5
MEAN_MOTION_DDOT = 0

CCSDS_OMM_VERS = 2.0
CREATION_DATE  = 
ORIGINATOR     = 

OBJECT_NAME    = SL-14 R/B
OBJECT_ID      = 1986-006B
CENTER_NAME    = EARTH
REF_FRAME      = TEME
TIME_SYSTEM    = UTC
MEAN_ELEMENT_THEORY = SGP/SGP4

EPOCH          = 2026-01-15T08:27:46.087200
MEAN_MOTION    = 14.86721736
ECCENTRICITY   = .00782872
INCLINATION    = 82.5288
RA_OF_ASC_NODE = 309.9274
ARG_OF_PERICENTER = 89.4773
MEAN_ANOMALY   = 271.5413

EPHEMERIS_TYPE = 0
CLASSIFICATION_TYPE = U
NORAD_CAT_ID   = 16496
ELEMENT_SET_NO = 999
REV_AT_EPOCH   = 14128
BSTAR          = .49414827E-4
MEAN_MOTION_DOT = .493E-5
MEAN_MOTION_DDOT = 0

CCSDS_OMM_VERS = 2.0
CREATION_DATE  = 
ORIGINATOR     = 

OBJECT_NAME    = COSMOS 1743
OBJECT_ID      = 1986-034A
CENTER_NAME    = EARTH
REF_FRAME      = TEME
TIME_SYSTEM    = UTC
MEAN_ELEMENT_THEORY = SGP/SGP4

EPOCH          = 2026-01-15T12:59:04.934112
MEAN_MOTION    = 15.54436019
ECCENTRICITY   = .00053732
INCLINATION    = 82.5358
RA_OF_ASC_NODE = 129.4255
ARG_OF_PERICENTER = 126.8037
MEAN_ANOMALY   = 233.3711

EPHEMERIS_TYPE = 0
CLASSIFICATION_TYPE = U
NORAD_CAT_ID   = 16719
ELEMENT_SET_NO = 999
REV_AT_EPOCH   = 17198
BSTAR          = .35895261E-3
MEAN_MOTION_DOT = .23652E-3
MEAN_MOTION_DDOT = 0

